              M50 Cartesian                         M50 Keplerian  
    -----------------------------------       --------------------------------
     X    =       -3911784.24                 A    =         6784051.31  meter
     Y    =       -4414352.60  meter          E    =           .0013578
     Z    =        3342546.36                 I    =           52.00064
     XDOT =       2284.957597                 Wp   =           81.04244
     YDOT =      -5605.639389  meter/sec      RA   =           74.73370  deg
     ZDOT =      -4710.708343                 TA   =           60.22612
                                              MA   =           60.09113
                                              Ha   =            221.203  n.mi
                                              Hp   =            214.022
 
              M50 Cartesian                         J2K Cartesian  
    -----------------------------------       --------------------------------
     X    =      -12833937.78                 X    =        -3878367.73
     Y    =      -14482784.12  feet           Y    =        -4457909.61  meter
     Z    =       10966359.46                 Z    =         3323625.53
     XDOT =       7496.580043                 XDOT =        2370.353977
     YDOT =     -18391.205345  feet/sec       YDOT =       -5579.610452  meter/sec
     ZDOT =     -15455.079867                 ZDOT =       -4699.400654
 
              TDR Cartesian                         TDR Cartesian  
    -----------------------------------       --------------------------------
     X    =      -15309436.25                 X    =        -4666316.17
     Y    =      -11910578.61  feet           Y    =        -3630344.36  meter
     Z    =       10884912.20                 Z    =         3317721.24
     XDOT =       3277.353476                 XDOT =         998.937340
     YDOT =     -18346.276252  feet/sec       YDOT =       -5591.945002  meter/sec
     ZDOT =     -15404.908607                 ZDOT =       -4695.416143
  
  
    The mean element set is posted at the UTC for which position is
    just north of the next ascending node relative to the above
    vector time
 
 
    TWO LINE MEAN ELEMENT SET
  
    ISS
    1 25544U 98067A   16093.53908543  .00016717  00000-0  10270-3 0  9014
    2 25544  51.6395  75.3399 0002573  18.6252 341.4995 15.54338421 33218
  
  
    Satellite: ISS
    Catalog Number: 25544
    Epoch time:      16093.53908543   =   yrday.fracday
    Element set:     901
    Inclination:       51.6395  deg
    RA of node:        75.3399  deg
    Eccentricity:     .0002573     
    Arg of perigee:    18.6252  deg
    Mean anomaly:     341.4995  deg
    Mean motion:   15.54338421  rev/day
    Decay rate:    1.67170E-04  rev/day^2
    Epoch rev:            3321
    Checksum:              316
 
 
    Coasting Arc #3 (Orbit 3324)
    ---------------------------------------
 
    Vector Time (GMT): 2016/093/18:00:53.000
    Vector Time (MET): N/A
    Weight (LBS)     : 922235.5
 
              M50 Cartesian                         M50 Keplerian  
    -----------------------------------       --------------------------------
     X    =       -4354940.91                 A    =         6777395.45  meter
     Y    =        -474571.46  meter          E    =           .0006895
     Z    =        5168570.92                 I    =           51.98068
     XDOT =       -981.169587                 Wp   =           40.89916
     YDOT =      -7457.937750  meter/sec      RA   =           73.50407  deg
     ZDOT =      -1505.286764                 TA   =           63.55899
                                              MA   =           63.48826
                                              Ha   =            221.187  n.mi
                                              Hp   =            214.001
 
              M50 Cartesian                         J2K Cartesian  
    -----------------------------------       --------------------------------
     X    =      -14287863.89                 X    =        -4374417.11
     Y    =       -1556992.98  feet           Y    =         -523379.68  meter
     Z    =       16957253.69                 Z    =         5147368.50
     XDOT =      -3219.060326                 XDOT =        -890.388129
     YDOT =     -24468.299705  feet/sec       YDOT =       -7468.402402  meter/sec
     ZDOT =      -4938.604869                 ZDOT =       -1509.831785
 
              TDR Cartesian                         TDR Cartesian  
    -----------------------------------       --------------------------------
     X    =        1190455.01                 X    =          362850.69
     Y    =       14431371.11  feet           Y    =         4398681.91  meter
     Z    =       16865173.56                 Z    =         5140504.90
     XDOT =     -22374.647845                 XDOT =       -6819.792663
     YDOT =       7662.617388  feet/sec       YDOT =        2335.565780  meter/sec
     ZDOT =      -4957.006365                 ZDOT =       -1510.895540
  
  
    The mean element set is posted at the UTC for which position is
    just north of the next ascending node relative to the above
    vector time
 
 
    TWO LINE MEAN ELEMENT SET
  
    ISS
    1 25544U 98067A   16093.79626033  .00016717  00000-0  10270-3 0  9024
    2 25544  51.6435  74.0590 0002566  15.0194 345.1035 15.54371833 33254
  
  
    Satellite: ISS
    Catalog Number: 25544
    Epoch time:      16093.79626033   =   yrday.fracday
    Element set:     902
    Inclination:       51.6435  deg
    RA of node:        74.0590  deg
    Eccentricity:     .0002566     
    Arg of perigee:    15.0194  deg
    Mean anomaly:     345.1035  deg
    Mean motion:   15.54371833  rev/day
    Decay rate:    1.67170E-04  rev/day^2
    Epoch rev:            3325
    Checksum:              292
 
 
    Coasting Arc #4 (Orbit 3339)
    ---------------------------------------
 
    Vector Time (GMT): 2016/094/18:00:53.000
    Vector Time (MET): N/A
    Weight (LBS)     : 922235.5
 
              M50 Cartesian                         M50 Keplerian  
    -----------------------------------       --------------------------------
     X    =        4614338.61                 A    =         6780428.32  meter
     Y    =        2220005.67  meter          E    =           .0009446
     Z    =       -4453028.80                 I    =           51.97972
     XDOT =        -96.579384                 Wp   =           94.36287
     YDOT =       6893.008798  meter/sec      RA   =           68.53050  deg
     ZDOT =       3341.741116                 TA   =          209.23222
                                              MA   =          209.28511
                                              Ha   =            221.205  n.mi
                                              Hp   =            214.083
 
              M50 Cartesian                         J2K Cartesian  
    -----------------------------------       --------------------------------
     X    =       15138906.20                 X    =         4610801.86
     Y    =        7283483.17  feet           Y    =         2271585.99  meter
     Z    =      -14609674.53                 Z    =        -4430622.39
     XDOT =       -316.861495                 XDOT =        -189.884254
     YDOT =      22614.858262  feet/sec       YDOT =        6891.407470  meter/sec
     ZDOT =      10963.717573                 ZDOT =        3341.044539
 
              TDR Cartesian                         TDR Cartesian  
    -----------------------------------       --------------------------------
     X    =        3993858.72                 X    =         1217328.14
     Y    =      -16404553.81  feet           Y    =        -5000108.00  meter
     Z    =      -14512680.83                 Z    =        -4423465.12
     XDOT =      21015.833485                 XDOT =        6405.626046
     YDOT =      -4563.249393  feet/sec       YDOT =       -1390.878415  meter/sec
     ZDOT =      10959.428117                 ZDOT =        3340.433690
  
  
    The mean element set is posted at the UTC for which position is
    just north of the next ascending node relative to the above
    vector time
 
 
    TWO LINE MEAN ELEMENT SET
  
    ISS
    1 25544U 98067A   16094.76066658  .00016717  00000-0  10270-3 0  9034
    2 25544  51.6428  69.2502 0002609  19.5677 340.5575 15.54339429 33408
  
  
    Satellite: ISS
    Catalog Number: 25544
    Epoch time:      16094.76066658   =   yrday.fracday
    Element set:     903
    Inclination:       51.6428  deg
    RA of node:        69.2502  deg
    Eccentricity:     .0002609     
    Arg of perigee:    19.5677  deg
    Mean anomaly:     340.5575  deg
    Mean motion:   15.54339429  rev/day
    Decay rate:    1.67170E-04  rev/day^2
    Epoch rev:            3340
    Checksum:              326
 
 
    Coasting Arc #5 (Orbit 3340)
    ---------------------------------------
 
    Vector Time (GMT): 2016/094/18:43:00.000
    Vector Time (MET): N/A
    Weight (LBS)     : 922235.5
 
              M50 Cartesian                         M50 Keplerian  
    -----------------------------------       --------------------------------
     X    =       -4451502.54                 A    =         6777733.72  meter
     Y    =        -428705.03  meter          E    =           .0007688
     Z    =        5089885.79                 I    =           51.97052
     XDOT =      -1375.960672                 Wp   =           43.56772
     YDOT =      -7325.881035  meter/sec      RA   =           68.39403  deg
     ZDOT =      -1813.370922                 TA   =           63.93501
                                              MA   =           63.85589
                                              Ha   =            221.230  n.mi
                                              Hp   =            213.946
 
